[{"OBJECT_NAME":"YAOGAN-50 02","OBJECT_ID":"2026-051A","EPOCH":"2026-04-04T06:47:46.305312","MEAN_MOTION":13.83260708,"ECCENTRICITY":7.549e-5,"INCLINATION":141.986,"RA_OF_ASC_NODE":330.6892,"ARG_OF_PERICENTER":270.3319,"MEAN_ANOMALY":89.7314,"EPHEMERIS_TYPE":0,"CLASSIFICATION_TYPE":"U","NORAD_CAT_ID":68196,"ELEMENT_SET_NO":999,"REV_AT_EPOCH":275,"BSTAR":7.3953927e-5,"MEAN_MOTION_DOT":2.68e-6,"MEAN_MOTION_DDOT":0},{"OBJECT_NAME":"CZ-6A R/B","OBJECT_ID":"2026-051B","EPOCH":"2026-04-04T05:19:49.557504","MEAN_MOTION":14.56384556,"ECCENTRICITY":0.01873198,"INCLINATION":142.0305,"RA_OF_ASC_NODE":341.3475,"ARG_OF_PERICENTER":235.0405,"MEAN_ANOMALY":123.2602,"EPHEMERIS_TYPE":0,"CLASSIFICATION_TYPE":"U","NORAD_CAT_ID":68197,"ELEMENT_SET_NO":999,"REV_AT_EPOCH":288,"BSTAR":0.00019359691,"MEAN_MOTION_DOT":1.403e-5,"MEAN_MOTION_DDOT":0},{"OBJECT_NAME":"2026-052A","OBJECT_ID":"2026-052A","EPOCH":"2026-04-04T07:17:31.778592","MEAN_MOTION":15.10059954,"ECCENTRICITY":0.00136225,"INCLINATION":97.5353,"RA_OF_ASC_NODE":170.2456,"ARG_OF_PERICENTER":195.9336,"MEAN_ANOMALY":164.1467,"EPHEMERIS_TYPE":0,"CLASSIFICATION_TYPE":"U","NORAD_CAT_ID":68198,"ELEMENT_SET_NO":999,"REV_AT_EPOCH":289,"BSTAR":0.00083935302,"MEAN_MOTION_DOT":0.00013641,"MEAN_MOTION_DDOT":0},{"OBJECT_NAME":"YUXING-3 06","OBJECT_ID":"2026-052B","EPOCH":"2026-04-04T07:14:42.597024","MEAN_MOTION":15.10192288,"ECCENTRICITY":0.00126331,"INCLINATION":97.5355,"RA_OF_ASC_NODE":170.2477,"ARG_OF_PERICENTER":197.1769,"MEAN_ANOMALY":162.9035,"EPHEMERIS_TYPE":0,"CLASSIFICATION_TYPE":"U","NORAD_CAT_ID":68199,"ELEMENT_SET_NO":999,"REV_AT_EPOCH":289,"BSTAR":0.00062621982,"MEAN_MOTION_DOT":0.0001019,"MEAN_MOTION_DDOT":0},{"OBJECT_NAME":"2026-052C","OBJECT_ID":"2026-052C","EPOCH":"2026-04-04T07:12:23.233824","MEAN_MOTION":15.10304992,"ECCENTRICITY":0.00122375,"INCLINATION":97.5354,"RA_OF_ASC_NODE":170.2504,"ARG_OF_PERICENTER":199.9274,"MEAN_ANOMALY":160.1479,"EPHEMERIS_TYPE":0,"CLASSIFICATION_TYPE":"U","NORAD_CAT_ID":68200,"ELEMENT_SET_NO":999,"REV_AT_EPOCH":288,"BSTAR":0.00055857358,"MEAN_MOTION_DOT":9.109e-5,"MEAN_MOTION_DDOT":0},{"OBJECT_NAME":"2026-052D","OBJECT_ID":"2026-052D","EPOCH":"2026-04-04T07:08:57.074784","MEAN_MOTION":15.10556488,"ECCENTRICITY":0.00115786,"INCLINATION":97.5351,"RA_OF_ASC_NODE":170.2505,"ARG_OF_PERICENTER":196.2933,"MEAN_ANOMALY":163.7926,"EPHEMERIS_TYPE":0,"CLASSIFICATION_TYPE":"U","NORAD_CAT_ID":68201,"ELEMENT_SET_NO":999,"REV_AT_EPOCH":289,"BSTAR":0.00081146015,"MEAN_MOTION_DOT":0.00013359,"MEAN_MOTION_DDOT":0},{"OBJECT_NAME":"2026-052E","OBJECT_ID":"2026-052E","EPOCH":"2026-04-04T07:08:55.575744","MEAN_MOTION":15.10555011,"ECCENTRICITY":0.00113632,"INCLINATION":97.5351,"RA_OF_ASC_NODE":170.2527,"ARG_OF_PERICENTER":200.3777,"MEAN_ANOMALY":159.7001,"EPHEMERIS_TYPE":0,"CLASSIFICATION_TYPE":"U","NORAD_CAT_ID":68202,"ELEMENT_SET_NO":999,"REV_AT_EPOCH":289,"BSTAR":0.00082202505,"MEAN_MOTION_DOT":0.00013533,"MEAN_MOTION_DDOT":0},{"OBJECT_NAME":"2026-052F","OBJECT_ID":"2026-052F","EPOCH":"2026-04-04T07:04:18.672384","MEAN_MOTION":15.1081401,"ECCENTRICITY":0.00106956,"INCLINATION":97.5347,"RA_OF_ASC_NODE":170.2593,"ARG_OF_PERICENTER":192.3558,"MEAN_ANOMALY":167.7411,"EPHEMERIS_TYPE":0,"CLASSIFICATION_TYPE":"U","NORAD_CAT_ID":68203,"ELEMENT_SET_NO":999,"REV_AT_EPOCH":289,"BSTAR":0.0008330093,"MEAN_MOTION_DOT":0.00013811,"MEAN_MOTION_DDOT":0},{"OBJECT_NAME":"2026-052G","OBJECT_ID":"2026-052G","EPOCH":"2026-04-04T07:03:26.114400","MEAN_MOTION":15.10860065,"ECCENTRICITY":0.00102097,"INCLINATION":97.536,"RA_OF_ASC_NODE":170.2567,"ARG_OF_PERICENTER":195.1889,"MEAN_ANOMALY":164.9036,"EPHEMERIS_TYPE":0,"CLASSIFICATION_TYPE":"U","NORAD_CAT_ID":68204,"ELEMENT_SET_NO":999,"REV_AT_EPOCH":289,"BSTAR":0.00083001546,"MEAN_MOTION_DOT":0.00013777,"MEAN_MOTION_DDOT":0},{"OBJECT_NAME":"KZ-11 R/B","OBJECT_ID":"2026-052H","EPOCH":"2026-04-04T07:31:55.356096","MEAN_MOTION":14.67645427,"ECCENTRICITY":0.05439355,"INCLINATION":97.34,"RA_OF_ASC_NODE":169.0111,"ARG_OF_PERICENTER":310.9083,"MEAN_ANOMALY":44.6201,"EPHEMERIS_TYPE":0,"CLASSIFICATION_TYPE":"U","NORAD_CAT_ID":68205,"ELEMENT_SET_NO":999,"REV_AT_EPOCH":281,"BSTAR":0.00050960605,"MEAN_MOTION_DOT":0.00034045,"MEAN_MOTION_DDOT":2.077646e-6},{"OBJECT_NAME":"2026-052J","OBJECT_ID":"2026-052J","EPOCH":"2026-04-04T07:19:38.567136","MEAN_MOTION":14.692696,"ECCENTRICITY":0.05378477,"INCLINATION":97.3398,"RA_OF_ASC_NODE":169.0205,"ARG_OF_PERICENTER":310.9064,"MEAN_ANOMALY":44.672,"EPHEMERIS_TYPE":0,"CLASSIFICATION_TYPE":"U","NORAD_CAT_ID":68206,"ELEMENT_SET_NO":999,"REV_AT_EPOCH":281,"BSTAR":0.0015210416,"MEAN_MOTION_DOT":0.0010459,"MEAN_MOTION_DDOT":3.600743e-6},{"OBJECT_NAME":"STARLINK-36986","OBJECT_ID":"2026-053A","EPOCH":"2026-04-04T05:51:17.021664","MEAN_MOTION":15.80904796,"ECCENTRICITY":0.00014393,"INCLINATION":97.2837,"RA_OF_ASC_NODE":329.799,"ARG_OF_PERICENTER":68.5076,"MEAN_ANOMALY":291.6346,"EPHEMERIS_TYPE":0,"CLASSIFICATION_TYPE":"U","NORAD_CAT_ID":68207,"ELEMENT_SET_NO":999,"REV_AT_EPOCH":409,"BSTAR":0.0004532793,"MEAN_MOTION_DOT":0.00087919,"MEAN_MOTION_DDOT":0},{"OBJECT_NAME":"STARLINK-37009","OBJECT_ID":"2026-053B","EPOCH":"2026-04-04T05:50:12.226848","MEAN_MOTION":15.80894735,"ECCENTRICITY":0.0001506,"INCLINATION":97.2833,"RA_OF_ASC_NODE":329.7993,"ARG_OF_PERICENTER":93.3353,"MEAN_ANOMALY":266.8088,"EPHEMERIS_TYPE":0,"CLASSIFICATION_TYPE":"U","NORAD_CAT_ID":68208,"ELEMENT_SET_NO":999,"REV_AT_EPOCH":409,"BSTAR":0.00039672067,"MEAN_MOTION_DOT":0.00076797,"MEAN_MOTION_DDOT":0},{"OBJECT_NAME":"STARLINK-36948","OBJECT_ID":"2026-053C","EPOCH":"2026-04-04T05:49:07.324896","MEAN_MOTION":15.80886183,"ECCENTRICITY":0.00015375,"INCLINATION":97.2835,"RA_OF_ASC_NODE":329.8007,"ARG_OF_PERICENTER":105.0578,"MEAN_ANOMALY":255.0861,"EPHEMERIS_TYPE":0,"CLASSIFICATION_TYPE":"U","NORAD_CAT_ID":68209,"ELEMENT_SET_NO":999,"REV_AT_EPOCH":407,"BSTAR":0.00028198271,"MEAN_MOTION_DOT":0.00054384,"MEAN_MOTION_DDOT":0},{"OBJECT_NAME":"STARLINK-37119","OBJECT_ID":"2026-053D","EPOCH":"2026-04-04T05:48:02.369376","MEAN_MOTION":15.80949119,"ECCENTRICITY":0.00019607,"INCLINATION":97.2829,"RA_OF_ASC_NODE":329.8009,"ARG_OF_PERICENTER":87.0965,"MEAN_ANOMALY":273.0528,"EPHEMERIS_TYPE":0,"CLASSIFICATION_TYPE":"U","NORAD_CAT_ID":68210,"ELEMENT_SET_NO":999,"REV_AT_EPOCH":409,"BSTAR":0.0011064957,"MEAN_MOTION_DOT":0.00218527,"MEAN_MOTION_DDOT":0},{"OBJECT_NAME":"STARLINK-37120","OBJECT_ID":"2026-053E","EPOCH":"2026-04-04T05:46:57.497664","MEAN_MOTION":15.8090977,"ECCENTRICITY":0.00017138,"INCLINATION":97.2834,"RA_OF_ASC_NODE":329.8022,"ARG_OF_PERICENTER":63.773,"MEAN_ANOMALY":296.3715,"EPHEMERIS_TYPE":0,"CLASSIFICATION_TYPE":"U","NORAD_CAT_ID":68211,"ELEMENT_SET_NO":999,"REV_AT_EPOCH":407,"BSTAR":0.00059668782,"MEAN_MOTION_DOT":0.00116185,"MEAN_MOTION_DDOT":0}]
