YAOGAN-50 02            
1 68196U 26051A   26094.28317483  .00000268  00000+0  73954-4 0  9998
2 68196 141.9860 330.6892 0000754 270.3319  89.7314 13.83260708  2757
CZ-6A R/B               
1 68197U 26051B   26094.22210136  .00001403  00000+0  19360-3 0  9992
2 68197 142.0305 341.3475 0187319 235.0405 123.2602 14.56384556  2884
2026-052A               
1 68198U 26052A   26094.30384003  .00013641  00000+0  83935-3 0  9994
2 68198  97.5353 170.2456 0013622 195.9336 164.1467 15.10059954  2898
YUXING-3 06             
1 68199U 26052B   26094.30188191  .00010190  00000+0  62622-3 0  9991
2 68199  97.5355 170.2477 0012633 197.1769 162.9035 15.10192288  2894
2026-052C               
1 68200U 26052C   26094.30026891  .00009109  00000+0  55857-3 0  9992
2 68200  97.5354 170.2504 0012237 199.9274 160.1479 15.10304992  2886
2026-052D               
1 68201U 26052D   26094.29788281  .00013359  00000+0  81146-3 0  9991
2 68201  97.5351 170.2505 0011578 196.2933 163.7926 15.10556488  2890
2026-052E               
1 68202U 26052E   26094.29786546  .00013533  00000+0  82203-3 0  9993
2 68202  97.5351 170.2527 0011363 200.3777 159.7001 15.10555011  2890
2026-052F               
1 68203U 26052F   26094.29466056  .00013811  00000+0  83301-3 0  9994
2 68203  97.5347 170.2593 0010695 192.3558 167.7411 15.10814010  2894
2026-052G               
1 68204U 26052G   26094.29405225  .00013777  00000+0  83002-3 0  9995
2 68204  97.5360 170.2567 0010209 195.1889 164.9036 15.10860065  2893
KZ-11 R/B               
1 68205U 26052H   26094.31383514  .00034045  20776-5  50961-3 0  9992
2 68205  97.3400 169.0111 0543935 310.9083  44.6201 14.67645427  2812
2026-052J               
1 68206U 26052J   26094.30530749  .00104590  36007-5  15210-2 0  9990
2 68206  97.3398 169.0205 0537847 310.9064  44.6720 14.69269600  2810
STARLINK-36986          
1 68207U 26053A   26094.24394701  .00087919  00000+0  45328-3 0  9998
2 68207  97.2837 329.7990 0001439  68.5076 291.6346 15.80904796  4092
STARLINK-37009          
1 68208U 26053B   26094.24319707  .00076797  00000+0  39672-3 0  9999
2 68208  97.2833 329.7993 0001506  93.3353 266.8088 15.80894735  4099
STARLINK-36948          
1 68209U 26053C   26094.24244589  .00054384  00000+0  28198-3 0  9994
2 68209  97.2835 329.8007 0001537 105.0578 255.0861 15.80886183  4078
STARLINK-37119          
1 68210U 26053D   26094.24169409  .00218527  00000+0  11065-2 0  9998
2 68210  97.2829 329.8009 0001960  87.0965 273.0528 15.80949119  4095
STARLINK-37120          
1 68211U 26053E   26094.24094326  .00116185  00000+0  59669-3 0  9994
2 68211  97.2834 329.8022 0001713  63.7730 296.3715 15.80909770  4077
